{
  "type": "FeatureCollection",
  "features": [
    {
      "type": "Feature",
      "properties": {
        "norad_id": 35052,
        "name": "IRIDIUM 33 DEB",
        "group": "iridium-33-debris",
        "lat": -48.26193080609562,
        "lon": -156.9007592455073,
        "alt_km": 779.0573284240663,
        "timestamp": "2025-12-16T05:49:09.598840+00:00",
        "meta_object_name": "IRIDIUM 33 DEB",
        "meta_object_id": "1997-051NY",
        "meta_epoch": "2025-12-15T20:24:53.339040",
        "meta_mean_motion": 14.38495733,
        "meta_eccentricity": 0.00135883,
        "meta_inclination": 86.3308,
        "meta_ra_of_asc_node": 19.1426,
        "meta_arg_of_pericenter": 76.4171,
        "meta_mean_anomaly": 283.8539,
        "meta_ephemeris_type": 0,
        "meta_classification_type": "U",
        "meta_norad_cat_id": 35052,
        "meta_element_set_no": 999,
        "meta_rev_at_epoch": 87320,
        "meta_bstar": 0.00017238116,
        "meta_mean_motion_dot": 5.47e-06,
        "meta_mean_motion_ddot": 0,
        "tle_line1": "1 35052U 97051NY  25349.85061735  .00000547  00000+0  17238-3 0  9994",
        "tle_line2": "2 35052  86.3308  19.1426 0013588  76.4171 283.8539 14.38495733873204"
      },
      "geometry": {
        "type": "Point",
        "coordinates": [
          -156.9007592455073,
          -48.26193080609562
        ]
      }
    },
    {
      "type": "Feature",
      "properties": {
        "norad_id": 35080,
        "name": "IRIDIUM 33 DEB",
        "group": "iridium-33-debris",
        "lat": -73.67991363884576,
        "lon": 37.60831143069673,
        "alt_km": 635.8936852628867,
        "timestamp": "2025-12-16T05:49:09.598850+00:00",
        "meta_object_name": "IRIDIUM 33 DEB",
        "meta_object_id": "1997-051PF",
        "meta_epoch": "2025-12-15T22:04:39.139680",
        "meta_mean_motion": 14.86464911,
        "meta_eccentricity": 0.00597118,
        "meta_inclination": 86.2076,
        "meta_ra_of_asc_node": 50.8561,
        "meta_arg_of_pericenter": 168.7581,
        "meta_mean_anomaly": 191.4994,
        "meta_ephemeris_type": 0,
        "meta_classification_type": "U",
        "meta_norad_cat_id": 35080,
        "meta_element_set_no": 999,
        "meta_rev_at_epoch": 69735,
        "meta_bstar": 0.00478109,
        "meta_mean_motion_dot": 0.00043877,
        "meta_mean_motion_ddot": 0,
        "tle_line1": "1 35080U 97051PF  25349.91989745  .00043877  00000+0  47811-2 0  9994",
        "tle_line2": "2 35080  86.2076  50.8561 0059711 168.7581 191.4994 14.86464911697352"
      },
      "geometry": {
        "type": "Point",
        "coordinates": [
          37.60831143069673,
          -73.67991363884576
        ]
      }
    },
    {
      "type": "Feature",
      "properties": {
        "norad_id": 35297,
        "name": "IRIDIUM 33 DEB",
        "group": "iridium-33-debris",
        "lat": -39.39378810432314,
        "lon": -115.75976143181634,
        "alt_km": 747.9619460759977,
        "timestamp": "2025-12-16T05:49:09.598860+00:00",
        "meta_object_name": "IRIDIUM 33 DEB",
        "meta_object_id": "1997-051PM",
        "meta_epoch": "2025-12-14T12:55:35.277600",
        "meta_mean_motion": 14.45168041,
        "meta_eccentricity": 0.00176283,
        "meta_inclination": 86.3867,
        "meta_ra_of_asc_node": 61.9926,
        "meta_arg_of_pericenter": 135.2135,
        "meta_mean_anomaly": 225.0494,
        "meta_ephemeris_type": 0,
        "meta_classification_type": "U",
        "meta_norad_cat_id": 35297,
        "meta_element_set_no": 999,
        "meta_rev_at_epoch": 70452,
        "meta_bstar": 0.0006336217,
        "meta_mean_motion_dot": 2.241e-05,
        "meta_mean_motion_ddot": 0,
        "tle_line1": "1 35297U 97051PM  25348.53860275  .00002241  00000+0  63362-3 0  9997",
        "tle_line2": "2 35297  86.3867  61.9926 0017628 135.2135 225.0494 14.45168041704521"
      },
      "geometry": {
        "type": "Point",
        "coordinates": [
          -115.75976143181634,
          -39.39378810432314
        ]
      }
    },
    {
      "type": "Feature",
      "properties": {
        "norad_id": 35299,
        "name": "IRIDIUM 33 DEB",
        "group": "iridium-33-debris",
        "lat": 81.1550557679078,
        "lon": -172.99066717453172,
        "alt_km": 706.454886663063,
        "timestamp": "2025-12-16T05:49:09.598870+00:00",
        "meta_object_name": "IRIDIUM 33 DEB",
        "meta_object_id": "1997-051PP",
        "meta_epoch": "2025-12-15T21:50:14.877024",
        "meta_mean_motion": 14.40877819,
        "meta_eccentricity": 0.00589889,
        "meta_inclination": 86.2887,
        "meta_ra_of_asc_node": 31.8064,
        "meta_arg_of_pericenter": 92.3249,
        "meta_mean_anomaly": 81.5744,
        "meta_ephemeris_type": 0,
        "meta_classification_type": "U",
        "meta_norad_cat_id": 35299,
        "meta_element_set_no": 999,
        "meta_rev_at_epoch": 86376,
        "meta_bstar": 0.00055865127,
        "meta_mean_motion_dot": 1.848e-05,
        "meta_mean_motion_ddot": 0,
        "tle_line1": "1 35299U 97051PP  25349.90989441  .00001848  00000+0  55865-3 0  9999",
        "tle_line2": "2 35299  86.2887  31.8064 0058988  92.3249  81.5744 14.40877819863766"
      },
      "geometry": {
        "type": "Point",
        "coordinates": [
          -172.99066717453172,
          81.1550557679078
        ]
      }
    },
    {
      "type": "Feature",
      "properties": {
        "norad_id": 35480,
        "name": "IRIDIUM 33 DEB",
        "group": "iridium-33-debris",
        "lat": -49.930361166966115,
        "lon": 19.050384528575847,
        "alt_km": 742.5629576326555,
        "timestamp": "2025-12-16T05:49:09.598880+00:00",
        "meta_object_name": "IRIDIUM 33 DEB",
        "meta_object_id": "1997-051QA",
        "meta_epoch": "2025-12-15T08:30:57.118464",
        "meta_mean_motion": 14.49774703,
        "meta_eccentricity": 0.00160032,
        "meta_inclination": 86.3571,
        "meta_ra_of_asc_node": 23.7786,
        "meta_arg_of_pericenter": 97.0457,
        "meta_mean_anomaly": 263.2568,
        "meta_ephemeris_type": 0,
        "meta_classification_type": "U",
        "meta_norad_cat_id": 35480,
        "meta_element_set_no": 999,
        "meta_rev_at_epoch": 87069,
        "meta_bstar": 0.00045738518,
        "meta_mean_motion_dot": 1.785e-05,
        "meta_mean_motion_ddot": 0,
        "tle_line1": "1 35480U 97051QA  25349.35482776  .00001785  00000+0  45739-3 0  9998",
        "tle_line2": "2 35480  86.3571  23.7786 0016003  97.0457 263.2568 14.49774703870695"
      },
      "geometry": {
        "type": "Point",
        "coordinates": [
          19.050384528575847,
          -49.930361166966115
        ]
      }
    },
    {
      "type": "Feature",
      "properties": {
        "norad_id": 35484,
        "name": "IRIDIUM 33 DEB",
        "group": "iridium-33-debris",
        "lat": 12.600471324286293,
        "lon": -8.077882352351361,
        "alt_km": 574.012086310473,
        "timestamp": "2025-12-16T05:49:09.598889+00:00",
        "meta_object_name": "IRIDIUM 33 DEB",
        "meta_object_id": "1997-051QE",
        "meta_epoch": "2025-12-13T07:15:48.307680",
        "meta_mean_motion": 14.98714194,
        "meta_eccentricity": 0.00237352,
        "meta_inclination": 86.3615,
        "meta_ra_of_asc_node": 352.4822,
        "meta_arg_of_pericenter": 123.3819,
        "meta_mean_anomaly": 236.9688,
        "meta_ephemeris_type": 0,
        "meta_classification_type": "U",
        "meta_norad_cat_id": 35484,
        "meta_element_set_no": 999,
        "meta_rev_at_epoch": 62024,
        "meta_bstar": 0.0048114888,
        "meta_mean_motion_dot": 0.00058609,
        "meta_mean_motion_ddot": 0,
        "tle_line1": "1 35484U 97051QE  25347.30264245  .00058609  00000+0  48115-2 0  9991",
        "tle_line2": "2 35484  86.3615 352.4822 0023735 123.3819 236.9688 14.98714194620242"
      },
      "geometry": {
        "type": "Point",
        "coordinates": [
          -8.077882352351361,
          12.600471324286293
        ]
      }
    },
    {
      "type": "Feature",
      "properties": {
        "norad_id": 35488,
        "name": "IRIDIUM 33 DEB",
        "group": "iridium-33-debris",
        "lat": -75.66576016827182,
        "lon": -75.30550387510124,
        "alt_km": 633.0074811193208,
        "timestamp": "2025-12-16T05:49:09.598899+00:00",
        "meta_object_name": "IRIDIUM 33 DEB",
        "meta_object_id": "1997-051QJ",
        "meta_epoch": "2025-12-15T07:29:31.144128",
        "meta_mean_motion": 14.8313163,
        "meta_eccentricity": 0.00296024,
        "meta_inclination": 86.3246,
        "meta_ra_of_asc_node": 299.6926,
        "meta_arg_of_pericenter": 34.6907,
        "meta_mean_anomaly": 325.6239,
        "meta_ephemeris_type": 0,
        "meta_classification_type": "U",
        "meta_norad_cat_id": 35488,
        "meta_element_set_no": 999,
        "meta_rev_at_epoch": 88304,
        "meta_bstar": 0.0010152976,
        "meta_mean_motion_dot": 8.367e-05,
        "meta_mean_motion_ddot": 0,
        "tle_line1": "1 35488U 97051QJ  25349.31216602  .00008367  00000+0  10153-2 0  9999",
        "tle_line2": "2 35488  86.3246 299.6926 0029602  34.6907 325.6239 14.83131630883043"
      },
      "geometry": {
        "type": "Point",
        "coordinates": [
          -75.30550387510124,
          -75.66576016827182
        ]
      }
    }
  ]
}